$$SOE
2460154.500000000, A.D. 2023-Jul-29 00:00:00.0000, -3.769437480012569E+08, -2.606616767192083E+08, 7.737362719760881E+07,
2460161.500000000, A.D. 2023-Aug-05 00:00:00.0000, -3.708916422958039E+08, -2.690885746091211E+08, 7.722135753348692E+07,
2460168.500000000, A.D. 2023-Aug-12 00:00:00.0000, -3.646601645011888E+08, -2.773853052772417E+08, 7.703172988690208E+07,
2460175.500000000, A.D. 2023-Aug-19 00:00:00.0000, -3.582522347965338E+08, -2.855477834861965E+08, 7.680481570182097E+07,
2460182.500000000, A.D. 2023-Aug-26 00:00:00.0000, -3.516708695995117E+08, -2.935719912221687E+08, 7.654070622451982E+07,
2460189.500000000, A.D. 2023-Sep-02 00:00:00.0000, -3.449191799003399E+08, -3.014539803053885E+08, 7.623951248681992E+07,
2460196.500000000, A.D. 2023-Sep-09 00:00:00.0000, -3.380003695011386E+08, -3.091898750660985E+08, 7.590136526214851E+07,
2460203.500000000, A.D. 2023-Sep-16 00:00:00.0000, -3.309177329938481E+08, -3.167758751408042E+08, 7.552641497425529E+07,
2460210.500000000, A.D. 2023-Sep-23 00:00:00.0000, -3.236746530620134E+08, -3.242082580988322E+08, 7.511483154386607E+07,
2460217.500000000, A.D. 2023-Sep-30 00:00:00.0000, -3.162745974476750E+08, -3.314833807051156E+08, 7.466680430173755E+07,
2460224.500000000, A.D. 2023-Oct-07 00:00:00.0000, -3.087211179383917E+08, -3.385976793587084E+08, 7.418254213955440E+07,
2460231.500000000, A.D. 2023-Oct-14 00:00:00.0000, -3.010178503362026E+08, -3.455476730180185E+08, 7.366227353268513E+07,
2460238.500000000, A.D. 2023-Oct-21 00:00:00.0000, -2.931685121829832E+08, -3.523299670084198E+08, 7.310624627027512E+07,
2460245.500000000, A.D. 2023-Oct-28 00:00:00.0000, -2.851768996697609E+08, -3.589412554493678E+08, 7.251472720862342E+07,
2460252.500000000, A.D. 2023-Nov-04 00:00:00.0000, -2.770468849824145E+08, -3.653783230679653E+08, 7.188800209980534E+07,
2460259.500000000, A.D. 2023-Nov-11 00:00:00.0000, -2.687824139081677E+08, -3.716380469958158E+08, 7.122637543037510E+07,
2460266.500000000, A.D. 2023-Nov-18 00:00:00.0000, -2.603875034855009E+08, -3.777173986112487E+08, 7.053017024502446E+07,
2460273.500000000, A.D. 2023-Nov-25 00:00:00.0000, -2.518662396273116E+08, -3.836134454027114E+08, 6.979972795084892E+07,
2460280.500000000, A.D. 2023-Dec-02 00:00:00.0000, -2.432227746922755E+08, -3.893233528629445E+08, 6.903540809930891E+07,
2460287.500000000, A.D. 2023-Dec-09 00:00:00.0000, -2.344613249298468E+08, -3.948443864711406E+08, 6.823758813445356E+07,
2460294.500000000, A.D. 2023-Dec-16 00:00:00.0000, -2.255861675145886E+08, -4.001739137488055E+08, 6.740666308246824E+07,
2460301.500000000, A.D. 2023-Dec-23 00:00:00.0000, -2.166016368246149E+08, -4.053094057002052E+08, 6.654304520707282E+07,
2460308.500000000, A.D. 2023-Dec-30 00:00:00.0000, -2.075121213074327E+08, -4.102484365862659E+08, 6.564716383959301E+07,
2460315.500000000, A.D. 2024-Jan-06 00:00:00.0000, -1.983220627082125E+08, -4.149886843909482E+08, 6.471946535333663E+07,
2460322.500000000, A.D. 2024-Jan-13 00:00:00.0000, -1.890359544906439E+08, -4.195279337867901E+08, 6.376041284385039E+07,
2460329.500000000, A.D. 2024-Jan-20 00:00:00.0000, -1.796583382309601E+08, -4.238640785154174E+08, 6.277048565551515E+07,
2460336.500000000, A.D. 2024-Jan-27 00:00:00.0000, -1.701938000183922E+08, -4.279951225300867E+08, 6.175017899431762E+07,
2460343.500000000, A.D. 2024-Feb-03 00:00:00.0000, -1.606469672946404E+08, -4.319191808470762E+08, 6.070000358868656E+07,
2460350.500000000, A.D. 2024-Feb-10 00:00:00.0000, -1.510225058586315E+08, -4.356344803946233E+08, 5.962048534897944E+07,
2460357.500000000, A.D. 2024-Feb-17 00:00:00.0000, -1.413251169005796E+08, -4.391393608490502E+08, 5.851216501319830E+07,
2460364.500000000, A.D. 2024-Feb-24 00:00:00.0000, -1.315595340313154E+08, -4.424322754417883E+08, 5.737559777663615E+07,
2460371.500000000, A.D. 2024-Mar-02 00:00:00.0000, -1.217305202793460E+08, -4.455117917699073E+08, 5.621135290034005E+07,
2460378.500000000, A.D. 2024-Mar-09 00:00:00.0000, -1.118428649193542E+08, -4.483765926744738E+08, 5.502001328122832E+07,
2460385.500000000, A.D. 2024-Mar-16 00:00:00.0000, -1.019013797404163E+08, -4.510254769915428E+08, 5.380217496471490E+07,
2460392.500000000, A.D. 2024-Mar-23 00:00:00.0000, -9.191089486192819E+07, -4.534573590683209E+08, 5.255844670092216E+07,
2460399.500000000, A.D. 2024-Mar-30 00:00:00.0000, -8.187625634274472E+07, -4.556712670715658E+08, 5.128944974846749E+07,
2460406.500000000, A.D. 2024-Apr-06 00:00:00.0000, -7.180232533089423E+07, -4.576663434555179E+08, 4.999581762743719E+07,
2460413.500000000, A.D. 2024-Apr-13 00:00:00.0000, -6.169397520568533E+07, -4.594418467538153E+08, 4.867819556467588E+07,
2460420.500000000, A.D. 2024-Apr-20 00:00:00.0000, -5.155608766774336E+07, -4.609971520201360E+08, 4.733723993815722E+07,
2460427.500000000, A.D. 2024-Apr-27 00:00:00.0000, -4.139354929738475E+07, -4.623317504797726E+08, 4.597361781429599E+07,
2460434.500000000, A.D. 2024-May-04 00:00:00.0000, -3.121124849654968E+07, -4.634452490960625E+08, 4.458800651317102E+07,
2460441.500000000, A.D. 2024-May-11 00:00:00.0000, -2.101407257890103E+07, -4.643373701539713E+08, 4.318109317197993E+07,
2460448.500000000, A.D. 2024-May-18 00:00:00.0000, -1.080690492879845E+07, -4.650079508397788E+08, 4.175357430148512E+07,
2460455.500000000, A.D. 2024-May-25 00:00:00.0000, -5.946222068738255E+05, -4.654569428249587E+08, 4.030615533320868E+07,
2460462.500000000, A.D. 2024-Jun-01 00:00:00.0000, 9.617908455140980E+06, -4.656844119132239E+08, 3.883955014797306E+07,
2460469.500000000, A.D. 2024-Jun-08 00:00:00.0000, 1.982583251386880E+07, -4.656905377755564E+08, 3.735448056219468E+07,
2460476.500000000, A.D. 2024-Jun-15 00:00:00.0000, 3.002431172443190E+07, -4.654756132298952E+08, 3.585167578068450E+07,
2460483.500000000, A.D. 2024-Jun-22 00:00:00.0000, 4.020852749284315E+07, -4.650400418915285E+08, 3.433187200491032E+07,
2460490.500000000, A.D. 2024-Jun-29 00:00:00.0000, 5.037368174620538E+07, -4.643843360151539E+08, 3.279581224298885E+07,
2460497.500000000, A.D. 2024-Jul-06 00:00:00.0000, 6.051499796407023E+07, -4.635091169999490E+08, 3.124424587726969E+07,
2460504.500000000, A.D. 2024-Jul-13 00:00:00.0000, 7.062772431907891E+07, -4.624151157355289E+08, 2.967792804219410E+07,
2460511.500000000, A.D. 2024-Jul-20 00:00:00.0000, 8.070713693972707E+07, -4.611031716428330E+08, 2.809761908922753E+07,
2460518.500000000, A.D. 2024-Jul-27 00:00:00.0000, 9.074854263761446E+07, -4.595742313719773E+08, 2.650408412128475E+07,
2460525.500000000, A.D. 2024-Aug-03 00:00:00.0000, 1.007472813704417E+08, -4.578293475346223E+08, 2.489809254150838E+07,
2460532.500000000, A.D. 2024-Aug-10 00:00:00.0000, 1.106987286047179E+08, -4.558696774778151E+08, 2.328041760121840E+07,
2460539.500000000, A.D. 2024-Aug-17 00:00:00.0000, 1.205982976236929E+08, -4.536964820797345E+08, 2.165183594469669E+07,
2460546.500000000, A.D. 2024-Aug-24 00:00:00.0000, 1.304414418068735E+08, -4.513111245915172E+08, 2.001312714654613E+07,
2460553.500000000, A.D. 2024-Aug-31 00:00:00.0000, 1.402236569957018E+08, -4.487150695888401E+08, 1.836507322613594E+07,
2460560.500000000, A.D. 2024-Sep-07 00:00:00.0000, 1.499404843099897E+08, -4.459098819096743E+08, 1.670845811615890E+07,
2460567.500000000, A.D. 2024-Sep-14 00:00:00.0000, 1.595875134992048E+08, -4.428972245854799E+08, 1.504406715912333E+07,
2460574.500000000, A.D. 2024-Sep-21 00:00:00.0000, 1.691603847981859E+08, -4.396788553559842E+08, 1.337268685174605E+07,
2460581.500000000, A.D. 2024-Sep-28 00:00:00.0000, 1.786547887982456E+08, -4.362566249967431E+08, 1.169510461818823E+07,
2460588.500000000, A.D. 2024-Oct-05 00:00:00.0000, 1.880664680026644E+08, -4.326324774594835E+08, 1.001210827572581E+07,
2460595.500000000, A.D. 2024-Oct-12 00:00:00.0000, 1.973912197053135E+08, -4.288084488479922E+08, 8.324485469726026E+06,
2460602.500000000, A.D. 2024-Oct-19 00:00:00.0000, 2.066248984400712E+08, -4.247866655028781E+08, 6.633023216658652E+06,
2460609.500000000, A.D. 2024-Oct-26 00:00:00.0000, 2.157634179671525E+08, -4.205693419978767E+08, 4.938507492797524E+06,
2460616.500000000, A.D. 2024-Nov-02 00:00:00.0000, 2.248027530529423E+08, -4.161587791966416E+08, 3.241722833040118E+06,
2460623.500000000, A.D. 2024-Nov-09 00:00:00.0000, 2.337389411402476E+08, -4.115573623500731E+08, 1.543451932894170E+06,
2460630.500000000, A.D. 2024-Nov-16 00:00:00.0000, 2.425680839359190E+08, -4.067675592355158E+08, -1.555247484355271E+05,
2460637.500000000, A.D. 2024-Nov-23 00:00:00.0000, 2.512863489639999E+08, -4.017919183901928E+08, -1.854429391906649E+06,
2460644.500000000, A.D. 2024-Nov-30 00:00:00.0000, 2.598899712938318E+08, -3.966330674846334E+08, -3.552487251658589E+06,
2460651.500000000, A.D. 2024-Dec-07 00:00:00.0000, 2.683752558634102E+08, -3.912937114191347E+08, -5.248927120866776E+06,
2460658.500000000, A.D. 2024-Dec-14 00:00:00.0000, 2.767385797095199E+08, -3.857766289230998E+08, -6.942981666848212E+06,
2460665.500000000, A.D. 2024-Dec-21 00:00:00.0000, 2.849763917851967E+08, -3.800846689007365E+08, -8.633887523876011E+06,
2460672.500000000, A.D. 2024-Dec-28 00:00:00.0000, 2.930852123360229E+08, -3.742207494912372E+08, -1.032088556694952E+07,
2460679.500000000, A.D. 2025-Jan-04 00:00:00.0000, 3.010616344329095E+08, -3.681878574680479E+08, -1.200322141030271E+07,
2460686.500000000, A.D. 2025-Jan-11 00:00:00.0000, 3.089023258412327E+08, -3.619890463193941E+08, -1.368014582759722E+07,
2460693.500000000, A.D. 2025-Jan-18 00:00:00.0000, 3.166040303102473E+08, -3.556274339310699E+08, -1.535091508441420E+07,
2460700.500000000, A.D. 2025-Jan-25 00:00:00.0000, 3.241635685270246E+08, -3.491062003480041E+08, -1.701479124381171E+07,
2460707.500000000, A.D. 2025-Feb-01 00:00:00.0000, 3.315778389252223E+08, -3.424285856466435E+08, -1.867104246446089E+07,
2460714.500000000, A.D. 2025-Feb-08 00:00:00.0000, 3.388438184078566E+08, -3.355978879004080E+08, -2.031894329481745E+07,
2460721.500000000, A.D. 2025-Feb-15 00:00:00.0000, 3.459585630134304E+08, -3.286174612599880E+08, -2.195777496737134E+07,
$$EOE